      2.10          N: GNSS NAV DATA                        RINEX VERSION / TYPE
fic2rin                                 05/30/2023 00:18:07 PGM / RUN BY / DATE
                                                            END OF HEADER
5  23  5 29  1 59 44.0 -.128990039229D-03 -.147792889038D-11  .000000000000D+00
     .400000000000D+01 -.625000000000D+00  .467662337156D-08  .247809810932D+01
    -.745058059692D-07  .595906225499D-02  .555813312531D-05  .515367311287D+04
     .935840000000D+05  .372529029846D-07 -.302921251120D+01 -.113621354103D-06
     .966304264714D+00  .277125000000D+03  .114967377232D+01 -.807462205471D-08
     .276797244002D-09  .100000000000D+01  .226400000000D+04  .000000000000D+00
     .240000000000D+01  .000000000000D+00 -.111758708954D-07  .400000000000D+01
     .864000000000D+05  .400000000000D+01
28 23  5 29  4  0  0.0  .810176134109D-04  .216004991671D-11  .000000000000D+00
     .870000000000D+02  .118125000000D+02  .446411451972D-08 -.124578489784D+01
     .538304448128D-06  .695709837601D-03  .106431543827D-04  .515368923378D+04
     .100800000000D+06 -.502914190292D-07 -.923890587431D+00  .186264514923D-07
     .961413848072D+00  .170906250000D+03  .170344544640D+01 -.793890211571D-08
    -.982183769039D-10  .100000000000D+01  .226400000000D+04  .000000000000D+00
     .240000000000D+01  .000000000000D+00 -.977888703346D-08  .599000000000D+03
     .936000000000D+05  .400000000000D+01
14 23  5 29  4  0  0.0  .726282596588D-04  .126192389871D-10  .000000000000D+00
     .198000000000D+03  .500937500000D+02  .491020452973D-08 -.455681196997D+00
     .238232314587D-05  .317840860225D-02  .590831041336D-05  .515367512131D+04
     .100800000000D+06  .987201929092D-07  .189145984472D+00  .204890966415D-07
     .949109488414D+00  .262093750000D+03 -.301677026128D+01 -.833927593574D-08
    -.846463830045D-10  .100000000000D+01  .226400000000D+04  .000000000000D+00
     .240000000000D+01  .000000000000D+00 -.791624188423D-08  .454000000000D+03
     .936000000000D+05  .400000000000D+01
22 23  5 29  4  0  0.0  .489112921059D-03  .625277607469D-11  .000000000000D+00
     .620000000000D+02 -.641250000000D+02  .465912264259D-08  .293642532720D+01
    -.326894223690D-05  .143578812713D-01  .774674117565D-05  .515363660812D+04
     .100800000000D+06  .217929482460D-06 -.185341915435D+01 -.204890966415D-06
     .962317886094D+00  .226281250000D+03 -.180221596973D+01 -.790497213096D-08
    -.275368613065D-09  .100000000000D+01  .226400000000D+04  .000000000000D+00
     .240000000000D+01  .630000000000D+02 -.838190317154D-08  .620000000000D+02
     .936000000000D+05  .400000000000D+01
24 23  5 29  3 59 44.0 -.205675140023D-03 -.135287336889D-10  .000000000000D+00
     .120000000000D+02  .643750000000D+01  .523914680292D-08  .123148572503D+01
     .476837158203D-06  .138951356057D-01  .103451311588D-04  .515365427017D+04
     .100784000000D+06 -.238418579102D-06 -.977271223201D+00  .149011611938D-06
     .933808221112D+00  .170125000000D+03  .893993182267D+00 -.846356682724D-08
    -.180007498035D-09  .100000000000D+01  .226400000000D+04  .000000000000D+00
     .240000000000D+01  .000000000000D+00  .279396772385D-08  .120000000000D+02
     .956700000000D+05  .400000000000D+01
27 23  5 29  3 59 44.0  .276495702565D-04 -.784439180279D-11  .000000000000D+00
     .200000000000D+01 -.202187500000D+02  .423089051929D-08 -.313927341349D+01
    -.105611979961D-05  .115764212096D-01  .638887286186D-05  .515366714287D+04
     .100784000000D+06  .447034835815D-07  .120134764790D+01 -.987201929092D-07
     .967400236126D+00  .258968750000D+03  .739423156880D+00 -.789461455667D-08
    -.261082303697D-09  .100000000000D+01  .226400000000D+04  .000000000000D+00
     .240000000000D+01  .000000000000D+00  .186264514923D-08  .200000000000D+01
     .957300000000D+05  .400000000000D+01
4  23  5 29  5 59 44.0  .537903979421D-04  .100044417195D-10  .000000000000D+00
     .161000000000D+03 -.641250000000D+02  .477841332581D-08 -.258546244396D+01
    -.331737101078D-05  .237818609457D-02  .770390033722D-05  .515366495705D+04
     .107984000000D+06 -.931322574615D-08 -.190200196741D+01 -.447034835815D-07
     .962469856950D+00  .236062500000D+03 -.297472300547D+01 -.812319550656D-08
    -.151434879299D-09  .100000000000D+01  .226400000000D+04  .000000000000D+00
     .240000000000D+01  .000000000000D+00 -.465661287308D-08  .929000000000D+03
     .100800000000D+06  .400000000000D+01
24 23  5 29  5 59 44.0 -.205772463232D-03 -.135287336889D-10  .000000000000D+00
     .140000000000D+02 -.625000000000D-01  .507342561426D-08  .228163157306D+01
    -.188127160072D-06  .138953113928D-01  .101327896118D-04  .515365550423D+04
     .107984000000D+06 -.117346644402D-06 -.977332001595D+00 -.307336449623D-06
     .933809249543D+00  .169312500000D+03  .894044715020D+00 -.804390648956D-08
    -.164292557730D-10  .100000000000D+01  .226400000000D+04  .000000000000D+00
     .240000000000D+01  .000000000000D+00  .279396772385D-08  .140000000000D+02
     .100800000000D+06  .400000000000D+01
27 23  5 29  5 59 44.0  .275927595794D-04 -.784439180279D-11  .000000000000D+00
     .380000000000D+02 -.174687500000D+02  .424839124826D-08 -.208911319376D+01
    -.884756445885D-06  .115763640497D-01  .627525150776D-05  .515366698837D+04
     .107984000000D+06  .745058059692D-07  .120129070235D+01 -.109896063805D-06
     .967398397238D+00  .261625000000D+03  .739445605358D+00 -.790568644643D-08
    -.253224833545D-09  .100000000000D+01  .226400000000D+04  .000000000000D+00
     .240000000000D+01  .000000000000D+00  .186264514923D-08  .380000000000D+02
     .100800000000D+06  .400000000000D+01
18 23  5 29  5 59 44.0 -.285756308585D-03 -.154614099301D-10  .000000000000D+00
     .210000000000D+02  .628125000000D+01  .396516516504D-08  .214937129561D+01
     .339001417160D-06  .323090679012D-02  .867061316967D-05  .515367641068D+04
     .107984000000D+06 -.465661287308D-07  .227123678670D+01  .111758708954D-07
     .973872687489D+00  .218812500000D+03  .312515960849D+01 -.781961143249D-08
     .742888087128D-10  .100000000000D+01  .226400000000D+04  .000000000000D+00
     .240000000000D+01  .000000000000D+00 -.838190317154D-08  .789000000000D+03
     .100800000000D+06  .400000000000D+01
2  23  5 29  6  0  0.0 -.591315794736D-03  .397903932026D-11  .000000000000D+00
     .300000000000D+02  .163437500000D+02  .400980988182D-08 -.130661861846D+01
     .104121863842D-05  .173125739675D-01  .977329909801D-05  .515950932121D+04
     .108000000000D+06 -.277534127235D-06  .217156383894D+01  .229105353355D-06
     .967407658972D+00  .199750000000D+03 -.128220796655D+01 -.803640617715D-08
     .189293599124D-09  .100000000000D+01  .226400000000D+04  .000000000000D+00
     .240000000000D+01  .000000000000D+00 -.176951289177D-07  .300000000000D+02
     .100800000000D+06  .400000000000D+01
1  23  5 29  6  0  0.0  .181955751032D-03 -.261479726760D-11  .000000000000D+00
     .230000000000D+02  .693750000000D+01  .356086260993D-08  .197823160028D+01
     .262632966042D-06  .128861340927D-01  .996887683868D-05  .515364882469D+04
     .108000000000D+06 -.152736902237D-06  .227027111448D+01 -.227242708206D-06
     .989985662202D+00  .201781250000D+03  .966597629528D+00 -.765424740156D-08
     .180364655769D-09  .100000000000D+01  .226400000000D+04  .000000000000D+00
     .240000000000D+01  .000000000000D+00  .465661287308D-08  .230000000000D+02
     .100800000000D+06  .400000000000D+01
5  23  5 29  6  0  0.0 -.129010528326D-03 -.147792889038D-11  .000000000000D+00
     .260000000000D+02  .104062500000D+02  .446340020425D-08 -.170251770618D+01
     .696629285812D-06  .595850031823D-02  .522844493389D-05  .515367329407D+04
     .108000000000D+06  .800937414169D-07 -.302932986357D+01  .447034835815D-07
     .966309330799D+00  .273656250000D+03  .114980067315D+01 -.808747973314D-08
     .425374861428D-09  .100000000000D+01  .226400000000D+04  .000000000000D+00
     .240000000000D+01  .000000000000D+00 -.111758708954D-07  .260000000000D+02
     .100800000000D+06  .400000000000D+01
3  23  5 29  6  0  0.0 -.288740731776D-03  .121644916362D-10  .000000000000D+00
     .340000000000D+02  .978125000000D+01  .431589406003D-08  .821014842404D+00
     .284984707832D-06  .485783966724D-02  .572018325329D-05  .515365963745D+04
     .108000000000D+06 -.428408384323D-07 -.298275287650D+01  .167638063431D-07
     .979273808833D+00  .277468750000D+03  .102674866187D+01 -.814462497061D-08
     .330728061866D-09  .100000000000D+01  .226400000000D+04  .000000000000D+00
     .240000000000D+01  .000000000000D+00  .186264514923D-08  .340000000000D+02
     .100800000000D+06  .400000000000D+01
12 23  5 29  6  0  0.0 -.381863210350D-03 -.466116034659D-11  .000000000000D+00
     .480000000000D+02  .474375000000D+02  .461233497941D-08  .594440705984D+00
     .245682895184D-05  .879037601408D-02  .602565705776D-05  .515359847641D+04
     .108000000000D+06 -.113621354103D-06  .227757956062D+00  .242143869400D-07
     .965754378678D+00  .267500000000D+03  .137471406108D+01 -.830641742420D-08
    -.850035407387D-10  .100000000000D+01  .226400000000D+04  .000000000000D+00
     .240000000000D+01  .000000000000D+00 -.125728547573D-07  .480000000000D+02
     .100800000000D+06  .400000000000D+01
7  23  5 29  6  0  0.0  .166407320648D-03 -.966338120634D-11  .000000000000D+00
     .270000000000D+02  .134375000000D+01  .483520140555D-08  .133942379567D+01
     .225380063057D-06  .173404505476D-01  .114087015390D-04  .515375443649D+04
     .108000000000D+06 -.342726707458D-06 -.886626182831D+00  .130385160446D-06
     .950284451550D+00  .161500000000D+03 -.219321932896D+01 -.829927426951D-08
    -.725030200418D-10  .100000000000D+01  .226400000000D+04  .000000000000D+00
     .240000000000D+01  .000000000000D+00 -.111758708954D-07  .270000000000D+02
     .100800000000D+06  .400000000000D+01
